1 44723U 19074L   22365.06238218  .00003849  00000-0  27712-3 0  9995
2 44723  53.0562  14.8311 0002094  35.3608 324.7519 15.06406415173386
1 44723U 19074L   22365.46046425  .00003565  00000-0  25808-3 0  9995
2 44723  53.0557  13.0460 0002185  35.4967 324.6167 15.06404911173271
1 44723U 19074L   22365.72585712  .00002452  00000-0  18344-3 0  9992
2 44723  53.0549  11.8534 0002317  36.6195 323.4952 15.06401103173317
1 44723U 19074L   23001.32298248 -.00002975  00000-0 -18095-3 0  9996
2 44723  53.0549   9.1730 0002213  37.7748 322.3396 15.06391324173409
1 44723U 19074L   23001.32298248 -.00002975  00000-0 -18095-3 0  9996
2 44723  53.0549   9.1730 0002213  37.7748 322.3396 15.06391324173577
1 44723U 19074L   23001.72106221 -.00002009  00000-0 -11599-3 0  9999
2 44723  53.0543   7.3851 0002262  35.6696 324.4443 15.06394879173460
1 44723U 19074L   23002.05280863 -.00001940  00000-0 -11141-3 0  9997
2 44723  53.0548   5.8956 0002170  36.1526 323.9610 15.06389015173512
1 44723U 19074L   23002.71626962  .00000396  00000-0  45497-4 0  9998
2 44723  53.0562   2.9188 0002314  41.2438 318.8726 15.06399198173617
1 44723U 19074L   23002.71626962  .00000396  00000-0  45497-4 0  9998
2 44723  53.0562   2.9188 0002314  41.2438 318.8726 15.06399198173785
1 44723U 19074L   23003.37973865  .00003290  00000-0  23969-3 0  9993
2 44723  53.0551 359.9395 0002092  35.3351 324.7777 15.06399614173717
1 44723U 19074L   23003.71147739  .00002864  00000-0  21116-3 0  9992
2 44723  53.0553 358.4518 0002485  35.7261 324.3894 15.06394636173939
1 44723U 19074L   23004.37494637  .00002211  00000-0  16728-3 0  9996
2 44723  53.0565 355.4708 0002230  45.0499 315.0670 15.06396688173865
1 44723U 19074L   23005.23744187  .00002811  00000-0  20745-3 0  9990
2 44723  53.0538 351.6002 0002397  44.1711 315.9469 15.06416023173996
1 44723U 19074L   23005.23744187  .00002811  00000-0  20745-3 0  9990
2 44723  53.0538 351.6002 0002397  44.1711 315.9469 15.06416023174166
1 44723U 19074L   23006.23264698 -.00003616  00000-0 -22401-3 0  9992
2 44723  53.0549 347.1280 0002289  43.5728 316.5441 15.06393645174315
1 44723U 19074L   23006.36535542 -.00002202  00000-0 -12901-3 0  9999
2 44723  53.0559 346.5366 0002221  38.3084 321.8063 15.06385867174335
1 44723U 19074L   23006.96247145 -.00001751  00000-0 -98665-4 0  9994
2 44723  53.0555 343.8566 0001978  37.6871 322.4256 15.06393506174258
1 44723U 19074L   23006.96247145 -.00001751  00000-0 -98665-4 0  9994
2 44723  53.0555 343.8566 0001978  37.6871 322.4256 15.06393506174427
1 44723U 19074L   23007.22786556 -.00002306  00000-0 -13597-3 0  9995
2 44723  53.0556 342.6652 0001871  36.7855 323.3262 15.06388801174299
1 44723U 19074L   23007.62595480 -.00002442  00000-0 -14514-3 0  9994
2 44723  53.0553 340.8785 0001864  36.0682 324.0432 15.06381788174526
1 44723U 19074L   23007.89134713 -.00000506  00000-0 -15089-4 0  9999
2 44723  53.0556 339.6862 0001819  35.0193 325.0916 15.06370090174394
1 44723U 19074L   23008.15673202  .00000339  00000-0  41719-4 0  9991
2 44723  53.0545 338.4958 0001860  35.3192 324.7920 15.06377385174433
1 44723U 19074L   23008.62115908  .00002510  00000-0  18745-3 0  9992
2 44723  53.0555 336.4101 0002020  43.7540 316.3609 15.06382406174500
1 44723U 19074L   23008.62115908  .00002510  00000-0  18745-3 0  9992
2 44723  53.0555 336.4101 0002020  43.7540 316.3609 15.06382406174678
1 44723U 19074L   23009.15192466  .00000798  00000-0  72493-4 0  9992
2 44723  53.0552 334.0270 0002008  45.0213 315.0939 15.06406690174757
1 44723U 19074L   23009.28461530  .00003118  00000-0  22808-3 0  9990
2 44723  53.0556 333.4312 0002079  47.7611 312.3554 15.06406977174605
1 44723U 19074L   23009.88175242  .00002582  00000-0  19224-3 0  9990
2 44723  53.0562 330.7517 0002381  54.5404 305.5806 15.06392150174691
1 44723U 19074L   23010.14713929  .00002890  00000-0  21289-3 0  9997
2 44723  53.0554 329.5596 0001835  56.4824 303.6340 15.06394211174732
1 44723U 19074L   23010.14713929  .00002890  00000-0  21289-3 0  9997
2 44723  53.0554 329.5596 0001835  56.4824 303.6340 15.06394211174901
1 44723U 19074L   23010.87695079  .00000602  00000-0  59297-4 0  9992
2 44723  53.0553 326.2841 0001938  63.1278 296.9909 15.06403278174841
1 44723U 19074L   23011.14234023  .00006455  00000-0  45185-3 0  9993
2 44723  53.0558 325.0931 0002064  67.9565 292.1644 15.06398170174887
1 44723U 19074L   23012.13753932  .00001851  00000-0  14313-3 0  9992
2 44723  53.0552 320.6247 0001762  76.9320 283.1866 15.06402626175200
1 44723U 19074L   23012.66831874 -.00000344  00000-0 -41921-5 0  9997
2 44723  53.0542 318.2445 0001807  76.1580 283.9610 15.06393541175112
1 44723U 19074L   23012.66831874 -.00000344  00000-0 -41921-5 0  9997
2 44723  53.0542 318.2445 0001807  76.1580 283.9610 15.06393541175280
1 44723U 19074L   23013.13274235  .00001536  00000-0  12201-3 0  9991
2 44723  53.0547 316.1586 0001552  82.4219 277.6947 15.06401837175353
1 44723U 19074L   23013.53082399 -.00000062  00000-0  14704-4 0  9998
2 44723  53.0543 314.3716 0001463  87.1852 272.9304 15.06398960175245
1 44723U 19074L   23014.19428807  .00004572  00000-0  32555-3 0  9991
2 44723  53.0538 311.3923 0001602 101.0553 259.0617 15.06411642175511
1 44723U 19074L   23014.59237340  .00002401  00000-0  18004-3 0  9997
2 44723  53.0534 309.6057 0001716  93.1815 266.9370 15.06402654175575
1 44723U 19074L   23014.92411143  .00001330  00000-0  10817-3 0  9993
2 44723  53.0546 308.1154 0001333 107.7993 252.3141 15.06394533175452
1 44723U 19074L   23014.92411143  .00001330  00000-0  10817-3 0  9993
2 44723  53.0546 308.1154 0001333 107.7993 252.3141 15.06394533175621
1 44723U 19074L   23015.78661503  .00001777  00000-0  13817-3 0  9993
2 44723  53.0561 304.2421 0001082 134.3200 225.7878 15.06400177175588
1 44723U 19074L   23016.05200013  .00003236  00000-0  23601-3 0  9993
2 44723  53.0549 303.0529 0001010 105.7504 254.3597 15.06407442175791
1 44723U 19074L   23016.51642902 -.00000806  00000-0 -35207-4 0  9999
2 44723  53.0534 300.9662 0001212  85.6640 274.4488 15.06401917175692
1 44723U 19074L   23016.78183336 -.00004074  00000-0 -25493-3 0  9995
2 44723  53.0568 299.7779 0001278  66.6844 293.4280 15.06375864175737
1 44723U 19074L   23016.78183336 -.00004074  00000-0 -25493-3 0  9995
2 44723  53.0568 299.7779 0001278  66.6844 293.4280 15.06375864175906
1 44723U 19074L   23017.04722080 -.00002420  00000-0 -14369-3 0  9993
2 44723  53.0558 298.5829 0001180 105.6174 254.4945 15.06379289175775
1 44723U 19074L   23017.90972498  .00003198  00000-0  23348-3 0  9996
2 44723  53.0543 294.7128 0001303  85.6850 274.4288 15.06400143175905
1 44723U 19074L   23018.04241812  .00008146  00000-0  56495-3 0  9998
2 44723  53.0542 294.1155 0001213  90.5222 269.5905 15.06410028176091
1 44723U 19074L   23018.57319554  .00009732  00000-0  67122-3 0  9996
2 44723  53.0540 291.7341 0001115  76.5935 283.5178 15.06405178176004
1 44723U 19074L   23018.57319554  .00009732  00000-0  67122-3 0  9996
2 44723  53.0540 291.7341 0001115  76.5935 283.5178 15.06405178176172
1 44723U 19074L   23018.90492653  .00006665  00000-0  46574-3 0  9995
2 44723  53.0541 290.2448 0001043  78.7136 281.3970 15.06411962176053
1 44723U 19074L   23019.43569792  .00000584  00000-0  58099-4 0  9993
2 44723  53.0543 287.8619 0001258  69.5182 290.5942 15.06406390176302
1 44723U 19074L   23019.56839345  .00002919  00000-0  21473-3 0  9990
2 44723  53.0530 287.2699 0001495  94.6320 265.4840 15.06404218176154
1 44723U 19074L   23020.03282403  .00001596  00000-0  12602-3 0  9995
2 44723  53.0536 285.1822 0001028 100.6147 259.4958 15.06394296176395
1 44723U 19074L   23020.43090886  .00013397  00000-0  91668-3 0  9992
2 44723  53.0537 283.3955 0000928  98.4922 261.6172 15.06396094176285
1 44723U 19074L   23021.09437682  .00017714  00000-0  12046-2 0  9993
2 44723  53.0531 280.4168 0000958  99.3740 260.7357 15.06414695176557
1 44723U 19074L   23021.42611318  .00011261  00000-0  77356-3 0  9997
2 44723  53.0533 278.9266 0001214  90.5315 269.5813 15.06406724176601
1 44723U 19074L   23021.89053875  .00006371  00000-0  44613-3 0  9992
2 44723  53.0540 276.8403 0001174  97.2094 262.9029 15.06406967176674
1 44723U 19074L   23022.42131209  .00003657  00000-0  26422-3 0  9992
2 44723  53.0526 274.4567 0000891  85.5461 274.5629 15.06405569176757
1 44723U 19074L   23022.95209336  .00003181  00000-0  23233-3 0  9996
2 44723  53.0524 272.0779 0002278  74.1893 285.9347 15.06400915176830
1 44723U 19074L   23023.81460278  .00008428  00000-0  58392-3 0  9999
2 44723  53.0524 268.2051 0001332  76.5145 283.5992 15.06404173176960
1 44723U 19074L   23024.80980116  .00003190  00000-0  23294-3 0  9991
2 44723  53.0522 263.7370 0001124  88.4351 271.6767 15.06405812177119
1 44723U 19074L   23025.47326917  .00001138  00000-0  95250-4 0  9990
2 44723  53.0523 260.7588 0001110  79.2635 280.8479 15.06401462177047
1 44723U 19074L   23025.47326917  .00001138  00000-0  95250-4 0  9990
2 44723  53.0523 260.7588 0001110  79.2635 280.8479 15.06401462177216
1 44723U 19074L   23025.80500929 -.00001629  00000-0 -90486-4 0  9997
2 44723  53.0523 259.2688 0001142  83.9343 276.1776 15.06391371177094
1 44723U 19074L   23025.80500929 -.00001629  00000-0 -90486-4 0  9997
2 44723  53.0523 259.2688 0001142  83.9343 276.1776 15.06391371177263
1 44723U 19074L   23025.93770241 -.00000897  00000-0 -41359-4 0  9998
2 44723  53.0523 258.6734 0001123  78.6198 281.4917 15.06393057177119
1 44723U 19074L   23026.86655332  .00001754  00000-0  13662-3 0  9990
2 44723  53.0532 254.5031 0001037  82.1878 277.9229 15.06402646177428
1 44723U 19074L   23027.39734186  .00001041  00000-0  88785-4 0  9992
2 44723  53.0532 252.1200 0000880  58.1066 302.0009 15.06382046177334
1 44723U 19074L   23027.39734186  .00001041  00000-0  88785-4 0  9992
2 44723  53.0532 252.1200 0000880  58.1066 302.0009 15.06382046177503
1 44723U 19074L   23027.79541520  .00001353  00000-0  10975-3 0  9995
2 44723  53.0523 250.3324 0001108  93.6492 266.4624 15.06393131177560
1 44723U 19074L   23027.86176197  .00001727  00000-0  13479-3 0  9994
2 44723  53.0523 250.0346 0001117  93.2161 266.8955 15.06394540177409
1 44723U 19074L   23028.39253654  .00000335  00000-0  41367-4 0  9999
2 44723  53.0519 247.6517 0001133  88.4511 271.6607 15.06394956177486
1 44723U 19074L   23028.85696635 -.00000014  00000-0  17924-4 0  9997
2 44723  53.0522 245.5669 0001150  86.6642 273.4479 15.06396221177551
1 44723U 19074L   23028.98965863  .00000914  00000-0  80250-4 0  9993
2 44723  53.0521 244.9712 0001176  85.2842 274.8281 15.06399707177746
1 44723U 19074L   23029.85216691  .00003422  00000-0  24847-3 0  9994
2 44723  53.0521 241.0991 0001195  86.2742 273.8384 15.06403071177703
1 44723U 19074L   23030.44929139  .00001406  00000-0  11326-3 0  9997
2 44723  53.0520 238.4182 0001223  87.9181 272.1948 15.06396784177969
1 44723U 19074L   23030.51563857  .00001322  00000-0  10765-3 0  9999
2 44723  53.0519 238.1202 0001204  86.9744 273.1383 15.06396079177804
1 44723U 19074L   23030.71467852  .00001295  00000-0  10581-3 0  9994
2 44723  53.0519 237.2267 0001207  87.1369 272.9758 15.06397194177839
1 44723U 19074L   23031.51083828  .00000557  00000-0  56281-4 0  9998
2 44723  53.0526 233.6523 0001187  87.7159 272.3966 15.06402155177954
1 44723U 19074L   23031.70987791  .00000353  00000-0  42569-4 0  9999
2 44723  53.0526 232.7587 0001191  87.7907 272.3218 15.06402188178159
1 44723U 19074L   23031.84257001  .00000492  00000-0  51941-4 0  9996
2 44723  53.0526 232.1627 0001185  89.1140 270.9984 15.06403488178008
